QIANFAN-1               
1 60379U 24140A   25229.89251149  .00000113  00000+0  15689-3 0  9991
2 60379  88.9833 311.3683 0017728 185.5780 174.5177 13.50959039 51574
QIANFAN-2               
1 60380U 24140B   25229.92121856  .00000106  00000+0  14613-3 0  9996
2 60380  88.9819 311.2208 0014039 157.1012 203.0768 13.50965511 51630
QIANFAN-3               
1 60381U 24140C   25230.22570253  .00000116  00000+0  16170-3 0  9992
2 60381  88.9811 311.3307 0014779 168.4620 191.6873 13.50959619 51580
QIANFAN-4               
1 60382U 24140D   25229.90486212  .00000085  00000+0  11238-3 0  9992
2 60382  88.9836 311.2322 0014178 159.6469 200.5250 13.50959104 51667
QIANFAN-5               
1 60383U 24140E   25230.17643750  .00000117  00000+0  16258-3 0  9999
2 60383  88.9812 311.3616 0015620 179.9522 180.1634 13.50962357 51569
QIANFAN-6               
1 60384U 24140F   25230.19695633  .00000115  00000+0  15916-3 0  9997
2 60384  88.9837 311.0747 0014123 164.3723 195.7867 13.50958851 51763
QIANFAN-7               
1 60385U 24140G   25230.17900601  .00000467  00000+0  18368-3 0  9994
2 60385  88.9836 307.4132 0017121  69.6899 290.6134 14.27515354 53768
QIANFAN-8               
1 60386U 24140H   25230.20523685  .00000093  00000+0  12465-3 0  9999
2 60386  88.9839 311.3092 0017472 168.0585 192.0984 13.50962679 51640
